ONEWEB-0012             
1 44057U 19010A   24232.60784484  .00000071  00000+0  15207-3 0  9990
2 44057  87.9153   1.5251 0000876  91.9599 268.1632 13.16594817263859
ONEWEB-0010             
1 44058U 19010B   24232.40518698  .00000046  00000+0  85510-4 0  9998
2 44058  87.9153   1.5449 0001524 116.0776 244.0512 13.16593573263876
ONEWEB-0008             
1 44059U 19010C   24232.35453893  .00000162  00000+0  39108-3 0  9998
2 44059  87.9155   1.5561 0002001  90.4439 269.6921 13.16600657263987
ONEWEB-0007             
1 44060U 19010D   24232.39232818 -.00000072  00000+0 -22407-3 0  9992
2 44060  87.9050  31.8895 0001382  88.4254 271.7034 13.15548916263709
ONEWEB-0006             
1 44061U 19010E   24232.39628861 -.00000093  00000+0 -28101-3 0  9990
2 44061  87.9040  31.8666 0001461  95.1460 264.9838 13.15547628263757
ONEWEB-0011             
1 44062U 19010F   24232.44223600  .00000206  00000+0  51400-3 0  9991
2 44062  87.9045  31.8595 0001684  96.4699 263.6623 13.15550295263751
ONEWEB-0013             
1 45131U 20008A   24232.39328411  .00000458  00000+0  12954-2 0  9997
2 45131  87.8679 186.9717 0002159  52.7084 307.4239 13.09390188218802
ONEWEB-0017             
1 45132U 20008B   24232.55144762 -.00000561  00000+0 -16448-2 0  9990
2 45132  87.8989 168.8948 0001855  83.5967 276.5372 13.10371604221415
